{
  "type": "FeatureCollection",
  "features": [
    {
      "type": "Feature",
      "properties": {
        "norad_id": 38250,
        "name": "BEIDOU-2 M3 (C11)",
        "group": "beidou",
        "lat": -43.148565058858566,
        "lon": -88.56439009649804,
        "alt_km": 21474.234483702177,
        "timestamp": "2025-12-22T23:36:20.978379+00:00",
        "meta_object_name": "BEIDOU-2 M3 (C11)",
        "meta_object_id": "2012-018A",
        "meta_epoch": "2025-12-21T23:49:10.133760",
        "meta_mean_motion": 1.86230181,
        "meta_eccentricity": 0.00240993,
        "meta_inclination": 55.9124,
        "meta_ra_of_asc_node": 310.8468,
        "meta_arg_of_pericenter": 275.3188,
        "meta_mean_anomaly": 84.4018,
        "meta_ephemeris_type": 0,
        "meta_classification_type": "U",
        "meta_norad_cat_id": 38250,
        "meta_element_set_no": 999,
        "meta_rev_at_epoch": 9264,
        "meta_bstar": 0,
        "meta_mean_motion_dot": -6e-07,
        "meta_mean_motion_ddot": 0,
        "tle_line1": "1 38250U 12018A   25355.99247840 -.00000060  00000+0  00000+0 0  9998",
        "tle_line2": "2 38250  55.9124 310.8468 0024099 275.3188  84.4018  1.86230181 92640"
      },
      "geometry": {
        "type": "Point",
        "coordinates": [
          -88.56439009649804,
          -43.148565058858566
        ]
      }
    },
    {
      "type": "Feature",
      "properties": {
        "norad_id": 38251,
        "name": "BEIDOU-2 M4 (C12)",
        "group": "beidou",
        "lat": -8.251088740609266,
        "lon": -55.6304460378676,
        "alt_km": 21515.398944382992,
        "timestamp": "2025-12-22T23:36:20.978391+00:00",
        "meta_object_name": "BEIDOU-2 M4 (C12)",
        "meta_object_id": "2012-018B",
        "meta_epoch": "2025-12-21T22:11:20.549760",
        "meta_mean_motion": 1.86229896,
        "meta_eccentricity": 0.00152556,
        "meta_inclination": 55.8135,
        "meta_ra_of_asc_node": 310.0771,
        "meta_arg_of_pericenter": 279.1681,
        "meta_mean_anomaly": 80.6551,
        "meta_ephemeris_type": 0,
        "meta_classification_type": "U",
        "meta_norad_cat_id": 38251,
        "meta_element_set_no": 999,
        "meta_rev_at_epoch": 9264,
        "meta_bstar": 0,
        "meta_mean_motion_dot": -6e-07,
        "meta_mean_motion_ddot": 0,
        "tle_line1": "1 38251U 12018B   25355.92454340 -.00000060  00000+0  00000+0 0  9997",
        "tle_line2": "2 38251  55.8135 310.0771 0015255 279.1681  80.6551  1.86229896 92646"
      },
      "geometry": {
        "type": "Point",
        "coordinates": [
          -55.6304460378676,
          -8.251088740609266
        ]
      }
    },
    {
      "type": "Feature",
      "properties": {
        "norad_id": 38775,
        "name": "BEIDOU-2 M6 (C14)",
        "group": "beidou",
        "lat": -3.193517990484885,
        "lon": -109.12924505553316,
        "alt_km": 21558.616343604263,
        "timestamp": "2025-12-22T23:36:20.978420+00:00",
        "meta_object_name": "BEIDOU-2 M6 (C14)",
        "meta_object_id": "2012-050B",
        "meta_epoch": "2025-12-22T04:08:12.945984",
        "meta_mean_motion": 1.86230889,
        "meta_eccentricity": 0.00114149,
        "meta_inclination": 56.3862,
        "meta_ra_of_asc_node": 68.7545,
        "meta_arg_of_pericenter": 343.263,
        "meta_mean_anomaly": 16.7493,
        "meta_ephemeris_type": 0,
        "meta_classification_type": "U",
        "meta_norad_cat_id": 38775,
        "meta_element_set_no": 999,
        "meta_rev_at_epoch": 9001,
        "meta_bstar": 0,
        "meta_mean_motion_dot": -3e-07,
        "meta_mean_motion_ddot": 0,
        "tle_line1": "1 38775U 12050B   25356.17237206 -.00000030  00000+0  00000+0 0  9999",
        "tle_line2": "2 38775  56.3862  68.7545 0011414 343.2630  16.7493  1.86230889 90014"
      },
      "geometry": {
        "type": "Point",
        "coordinates": [
          -109.12924505553316,
          -3.193517990484885
        ]
      }
    },
    {
      "type": "Feature",
      "properties": {
        "norad_id": 38953,
        "name": "BEIDOU-2 G6 (C02)",
        "group": "beidou",
        "lat": 3.9727431896044645,
        "lon": 169.82362551869016,
        "alt_km": 35819.648955798795,
        "timestamp": "2025-12-22T23:36:20.978442+00:00",
        "meta_object_name": "BEIDOU-2 G6 (C02)",
        "meta_object_id": "2012-059A",
        "meta_epoch": "2025-12-22T13:33:52.129152",
        "meta_mean_motion": 1.00268516,
        "meta_eccentricity": 0.00083054,
        "meta_inclination": 3.9727,
        "meta_ra_of_asc_node": 75.4106,
        "meta_arg_of_pericenter": 292.315,
        "meta_mean_anomaly": 11.0325,
        "meta_ephemeris_type": 0,
        "meta_classification_type": "U",
        "meta_norad_cat_id": 38953,
        "meta_element_set_no": 999,
        "meta_rev_at_epoch": 4813,
        "meta_bstar": 0,
        "meta_mean_motion_dot": -1.55e-06,
        "meta_mean_motion_ddot": 0,
        "tle_line1": "1 38953U 12059A   25356.56518668 -.00000155  00000+0  00000+0 0  9991",
        "tle_line2": "2 38953   3.9727  75.4106 0008305 292.3150  11.0325  1.00268516 48136"
      },
      "geometry": {
        "type": "Point",
        "coordinates": [
          169.82362551869016,
          3.9727431896044645
        ]
      }
    },
    {
      "type": "Feature",
      "properties": {
        "norad_id": 40549,
        "name": "BEIDOU-3S IGSO-1S (C31)",
        "group": "beidou",
        "lat": -42.82727029241864,
        "lon": 169.7231970886528,
        "alt_km": 35686.13870670413,
        "timestamp": "2025-12-22T23:36:20.978456+00:00",
        "meta_object_name": "BEIDOU-3S IGSO-1S (C31)",
        "meta_object_id": "2015-019A",
        "meta_epoch": "2025-12-18T19:55:38.829792",
        "meta_mean_motion": 1.00292047,
        "meta_eccentricity": 0.0036331,
        "meta_inclination": 49.5404,
        "meta_ra_of_asc_node": 297.6395,
        "meta_arg_of_pericenter": 194.0028,
        "meta_mean_anomaly": 349.3621,
        "meta_ephemeris_type": 0,
        "meta_classification_type": "U",
        "meta_norad_cat_id": 40549,
        "meta_element_set_no": 999,
        "meta_rev_at_epoch": 3926,
        "meta_bstar": 0,
        "meta_mean_motion_dot": -1.83e-06,
        "meta_mean_motion_ddot": 0,
        "tle_line1": "1 40549U 15019A   25352.83031053 -.00000183  00000+0  00000+0 0  9999",
        "tle_line2": "2 40549  49.5404 297.6395 0036331 194.0028 349.3621  1.00292047 39264"
      },
      "geometry": {
        "type": "Point",
        "coordinates": [
          169.7231970886528,
          -42.82727029241864
        ]
      }
    },
    {
      "type": "Feature",
      "properties": {
        "norad_id": 40748,
        "name": "BEIDOU-3S M2S (C58)",
        "group": "beidou",
        "lat": -25.995914126906364,
        "lon": 148.02525154692572,
        "alt_km": 21514.364048699645,
        "timestamp": "2025-12-22T23:36:20.978469+00:00",
        "meta_object_name": "BEIDOU-3S M2S (C58)",
        "meta_object_id": "2015-037A",
        "meta_epoch": "2025-12-22T03:06:37.980000",
        "meta_mean_motion": 1.86229546,
        "meta_eccentricity": 0.00118585,
        "meta_inclination": 55.0305,
        "meta_ra_of_asc_node": 308.1418,
        "meta_arg_of_pericenter": 270.827,
        "meta_mean_anomaly": 89.0356,
        "meta_ephemeris_type": 0,
        "meta_classification_type": "U",
        "meta_norad_cat_id": 40748,
        "meta_element_set_no": 999,
        "meta_rev_at_epoch": 7082,
        "meta_bstar": 0,
        "meta_mean_motion_dot": -5.8e-07,
        "meta_mean_motion_ddot": 0,
        "tle_line1": "1 40748U 15037A   25356.12960625 -.00000058  00000+0  00000+0 0  9993",
        "tle_line2": "2 40748  55.0305 308.1418 0011858 270.8270  89.0356  1.86229546 70828"
      },
      "geometry": {
        "type": "Point",
        "coordinates": [
          148.02525154692572,
          -25.995914126906364
        ]
      }
    },
    {
      "type": "Feature",
      "properties": {
        "norad_id": 40749,
        "name": "BEIDOU-3S M1S (C57)",
        "group": "beidou",
        "lat": 44.72232791752808,
        "lon": -8.091927024661553,
        "alt_km": 21514.949727788407,
        "timestamp": "2025-12-22T23:36:20.978486+00:00",
        "meta_object_name": "BEIDOU-3S M1S (C57)",
        "meta_object_id": "2015-037B",
        "meta_epoch": "2025-12-21T06:50:01.998240",
        "meta_mean_motion": 1.86253999,
        "meta_eccentricity": 0.00036481,
        "meta_inclination": 55.0276,
        "meta_ra_of_asc_node": 308.16,
        "meta_arg_of_pericenter": 1.485,
        "meta_mean_anomaly": 358.5113,
        "meta_ephemeris_type": 0,
        "meta_classification_type": "U",
        "meta_norad_cat_id": 40749,
        "meta_element_set_no": 999,
        "meta_rev_at_epoch": 7081,
        "meta_bstar": 0,
        "meta_mean_motion_dot": -6.3e-07,
        "meta_mean_motion_ddot": 0,
        "tle_line1": "1 40749U 15037B   25355.28474535 -.00000063  00000+0  00000+0 0  9996",
        "tle_line2": "2 40749  55.0276 308.1600 0003648   1.4850 358.5113  1.86253999 70812"
      },
      "geometry": {
        "type": "Point",
        "coordinates": [
          -8.091927024661553,
          44.72232791752808
        ]
      }
    }
  ]
}